[{"OBJECT_NAME":"STARLINK-6112","OBJECT_ID":"2023-090AM","EPOCH":"2026-03-09T22:00:01.999584","MEAN_MOTION":15.11298735,"ECCENTRICITY":0.00018912,"INCLINATION":43,"RA_OF_ASC_NODE":260.607,"ARG_OF_PERICENTER":282.8323,"MEAN_ANOMALY":128.9172,"EPHEMERIS_TYPE":0,"CLASSIFICATION_TYPE":"U","NORAD_CAT_ID":57136,"ELEMENT_SET_NO":999,"REV_AT_EPOCH":572,"BSTAR":0.0059524371,"MEAN_MOTION_DOT":0.00103265,"MEAN_MOTION_DDOT":0},{"OBJECT_NAME":"NOAA 17 DEB","OBJECT_ID":"2002-032DT","EPOCH":"2026-03-08T22:47:54.624192","MEAN_MOTION":15.08678856,"ECCENTRICITY":0.0018728,"INCLINATION":98.77,"RA_OF_ASC_NODE":121.3607,"ARG_OF_PERICENTER":298.7191,"MEAN_ANOMALY":61.2152,"EPHEMERIS_TYPE":0,"CLASSIFICATION_TYPE":"U","NORAD_CAT_ID":49489,"ELEMENT_SET_NO":999,"REV_AT_EPOCH":24229,"BSTAR":0.0068247859,"MEAN_MOTION_DOT":0.00108865,"MEAN_MOTION_DDOT":0}]
